AFRISTAR                
1 25515U 98063A   17345.88587667  .00000112  00000-0  00000-0 0  9993
2 25515   3.6463  69.1627 0005409 208.5800 142.1035  1.00256526 69765
